{"type": "FeatureCollection", "features": [ {"type": "Feature", "properties": {"norad_id": 30447, "name": "FENGYUN 1C DEB", "group": "fengyun-1c-debris", "lat": 73.4973506151923, "lon": 70.74036807498119, "alt_km": 704.7632187096824, "timestamp": "2025-12-22T05:49:03.776018+00:00", "meta": {"OBJECT_NAME": "FENGYUN 1C DEB", "OBJECT_ID": "1999-025AFJ", "EPOCH": "2025-12-21T13:08:47.030784", "MEAN_MOTION": 14.56761048, "ECCENTRICITY": 0.0060117, "INCLINATION": 98.9713, "RA_OF_ASC_NODE": 217.7696, "ARG_OF_PERICENTER": 4.5143, "MEAN_ANOMALY": 57.8621, "EPHEMERIS_TYPE": 0, "CLASSIFICATION_TYPE": "U", "NORAD_CAT_ID": 30447, "ELEMENT_SET_NO": 999, "REV_AT_EPOCH": 98224, "BSTAR": 0.0019082, "MEAN_MOTION_DOT": 8.701e-05, "MEAN_MOTION_DDOT": 0}, "tle": {"line1": "1 30447U 99025AFJ 25355.54776656  .00008701  00000+0  19082-2 0  9996", "line2": "2 30447  98.9713 217.7696 0060117   4.5143  57.8621 14.56761048982243"}}, "geometry": {"type": "Point", "coordinates": [70.74036807498119, 73.4973506151923]}}, {"type": "Feature", "properties": {"norad_id": 30448, "name": "FENGYUN 1C DEB", "group": "fengyun-1c-debris", "lat": 10.620425212837906, "lon": -90.27279673165953, "alt_km": 787.7672582329515, "timestamp": "2025-12-22T05:49:03.776029+00:00", "meta": {"OBJECT_NAME": "FENGYUN 1C DEB", "OBJECT_ID": "1999-025AFK", "EPOCH": "2025-12-21T17:55:43.428288", "MEAN_MOTION": 14.35215097, "ECCENTRICITY": 0.0016893, "INCLINATION": 98.8309, "RA_OF_ASC_NODE": 87.5501, "ARG_OF_PERICENTER": 343.0741, "MEAN_ANOMALY": 148.054, "EPHEMERIS_TYPE": 0, "CLASSIFICATION_TYPE": "U", "NORAD_CAT_ID": 30448, "ELEMENT_SET_NO": 999, "REV_AT_EPOCH": 97467, "BSTAR": 0.0014229, "MEAN_MOTION_DOT": 4.032e-05, "MEAN_MOTION_DDOT": 0}, "tle": {"line1": "1 30448U 99025AFK 25355.74703042  .00004032  00000+0  14229-2 0  9999", "line2": "2 30448  98.8309  87.5501 0016893 343.0741 148.0540 14.35215097974675"}}, "geometry": {"type": "Point", "coordinates": [-90.27279673165953, 10.620425212837906]}}, {"type": "Feature", "properties": {"norad_id": 30450, "name": "FENGYUN 1C DEB", "group": "fengyun-1c-debris", "lat": 57.585471648867795, "lon": -157.00431456441814, "alt_km": 606.869627876621, "timestamp": "2025-12-22T05:49:03.776040+00:00", "meta": {"OBJECT_NAME": "FENGYUN 1C DEB", "OBJECT_ID": "1999-025AFM", "EPOCH": "2025-12-21T11:48:21.146688", "MEAN_MOTION": 14.61836786, "ECCENTRICITY": 0.01895228, "INCLINATION": 98.0795, "RA_OF_ASC_NODE": 9.3347, "ARG_OF_PERICENTER": 180.7336, "MEAN_ANOMALY": 315.3069, "EPHEMERIS_TYPE": 0, "CLASSIFICATION_TYPE": "U", "NORAD_CAT_ID": 30450, "ELEMENT_SET_NO": 999, "REV_AT_EPOCH": 99670, "BSTAR": 0.00040481976, "MEAN_MOTION_DOT": 2.559e-05, "MEAN_MOTION_DDOT": 0}, "tle": {"line1": "1 30450U 99025AFM 25355.49191142  .00002559  00000+0  40482-3 0  9999", "line2": "2 30450  98.0795   9.3347 0189522 180.7336 315.3069 14.61836786996701"}}, "geometry": {"type": "Point", "coordinates": [-157.00431456441814, 57.585471648867795]}}, {"type": "Feature", "properties": {"norad_id": 30452, "name": "FENGYUN 1C DEB", "group": "fengyun-1c-debris", "lat": 45.12928474890786, "lon": 126.68562523228935, "alt_km": 708.4011500782299, "timestamp": "2025-12-22T05:49:03.776050+00:00", "meta": {"OBJECT_NAME": "FENGYUN 1C DEB", "OBJECT_ID": "1999-025AFP", "EPOCH": "2025-12-19T08:52:52.391712", "MEAN_MOTION": 14.64805367, "ECCENTRICITY": 0.0049499, "INCLINATION": 99.3216, "RA_OF_ASC_NODE": 132.9317, "ARG_OF_PERICENTER": 232.8822, "MEAN_ANOMALY": 154.6222, "EPHEMERIS_TYPE": 0, "CLASSIFICATION_TYPE": "U", "NORAD_CAT_ID": 30452, "ELEMENT_SET_NO": 999, "REV_AT_EPOCH": 98204, "BSTAR": 0.0027554, "MEAN_MOTION_DOT": 0.00014935, "MEAN_MOTION_DDOT": 0}, "tle": {"line1": "1 30452U 99025AFP 25353.37005083  .00014935  00000+0  27554-2 0  9999", "line2": "2 30452  99.3216 132.9317 0049499 232.8822 154.6222 14.64805367982043"}}, "geometry": {"type": "Point", "coordinates": [126.68562523228935, 45.12928474890786]}}, {"type": "Feature", "properties": {"norad_id": 30453, "name": "FENGYUN 1C DEB", "group": "fengyun-1c-debris", "lat": -3.4557410725342197, "lon": -112.53975162650141, "alt_km": 731.9944773109964, "timestamp": "2025-12-22T05:49:03.776061+00:00", "meta": {"OBJECT_NAME": "FENGYUN 1C DEB", "OBJECT_ID": "1999-025AFQ", "EPOCH": "2025-12-21T11:01:51.168000", "MEAN_MOTION": 14.24814442, "ECCENTRICITY": 0.01161187, "INCLINATION": 98.8126, "RA_OF_ASC_NODE": 67.2113, "ARG_OF_PERICENTER": 201.2411, "MEAN_ANOMALY": 289.5884, "EPHEMERIS_TYPE": 0, "CLASSIFICATION_TYPE": "U", "NORAD_CAT_ID": 30453, "ELEMENT_SET_NO": 999, "REV_AT_EPOCH": 97358, "BSTAR": 0.0011570665, "MEAN_MOTION_DOT": 2.851e-05, "MEAN_MOTION_DDOT": 0}, "tle": {"line1": "1 30453U 99025AFQ 25355.45962000  .00002851  00000+0  11571-2 0  9998", "line2": "2 30453  98.8126  67.2113 0116118 201.2411 289.5884 14.24814442973580"}}, "geometry": {"type": "Point", "coordinates": [-112.53975162650141, -3.4557410725342197]}}, {"type": "Feature", "properties": {"norad_id": 30454, "name": "FENGYUN 1C DEB", "group": "fengyun-1c-debris", "lat": -44.79554651440741, "lon": 137.49062732472035, "alt_km": 780.4956045880263, "timestamp": "2025-12-22T05:49:03.776071+00:00", "meta": {"OBJECT_NAME": "FENGYUN 1C DEB", "OBJECT_ID": "1999-025AFR", "EPOCH": "2025-12-21T16:01:30.931968", "MEAN_MOTION": 14.15445519, "ECCENTRICITY": 0.0171239, "INCLINATION": 98.1336, "RA_OF_ASC_NODE": 325.1291, "ARG_OF_PERICENTER": 168.9306, "MEAN_ANOMALY": 8.0009, "EPHEMERIS_TYPE": 0, "CLASSIFICATION_TYPE": "U", "NORAD_CAT_ID": 30454, "ELEMENT_SET_NO": 999, "REV_AT_EPOCH": 96086, "BSTAR": 0.0013749, "MEAN_MOTION_DOT": 3.056e-05, "MEAN_MOTION_DDOT": 0}, "tle": {"line1": "1 30454U 99025AFR 25355.66771912  .00003056  00000+0  13749-2 0  9999", "line2": "2 30454  98.1336 325.1291 0171239 168.9306   8.0009 14.15445519960862"}}, "geometry": {"type": "Point", "coordinates": [137.49062732472035, -44.79554651440741]}}, {"type": "Feature", "properties": {"norad_id": 30462, "name": "FENGYUN 1C DEB", "group": "fengyun-1c-debris", "lat": 12.724420703651118, "lon": -17.76670402953107, "alt_km": 959.8548778453933, "timestamp": "2025-12-22T05:49:03.776081+00:00", "meta": {"OBJECT_NAME": "FENGYUN 1C DEB", "OBJECT_ID": "1999-025AFZ", "EPOCH": "2025-12-21T10:04:03.191232", "MEAN_MOTION": 14.06272105, "ECCENTRICITY": 0.01389973, "INCLINATION": 98.8174, "RA_OF_ASC_NODE": 343.4402, "ARG_OF_PERICENTER": 225.6687, "MEAN_ANOMALY": 302.7033, "EPHEMERIS_TYPE": 0, "CLASSIFICATION_TYPE": "U", "NORAD_CAT_ID": 30462, "ELEMENT_SET_NO": 999, "REV_AT_EPOCH": 96915, "BSTAR": 0.00018444076, "MEAN_MOTION_DOT": 2.88e-06, "MEAN_MOTION_DDOT": 0}, "tle": {"line1": "1 30462U 99025AFZ 25355.41948138  .00000288  00000+0  18444-3 0  9999", "line2": "2 30462  98.8174 343.4402 0138997 225.6687 302.7033 14.06272105969153"}}, "geometry": {"type": "Point", "coordinates": [-17.76670402953107, 12.724420703651118]}}, {"type": "Feature", "properties": {"norad_id": 30464, "name": "FENGYUN 1C DEB", "group": "fengyun-1c-debris", "lat": -19.354362530722963, "lon": -136.75016840815718, "alt_km": 796.7340926429733, "timestamp": "2025-12-22T05:49:03.776092+00:00", "meta": {"OBJECT_NAME": "FENGYUN 1C DEB", "OBJECT_ID": "1999-025AGB", "EPOCH": "2025-12-21T14:17:58.197408", "MEAN_MOTION": 14.10248811, "ECCENTRICITY": 0.0108519, "INCLINATION": 98.8358, "RA_OF_ASC_NODE": 45.7466, "ARG_OF_PERICENTER": 233.3342, "MEAN_ANOMALY": 285.9468, "EPHEMERIS_TYPE": 0, "CLASSIFICATION_TYPE": "U", "NORAD_CAT_ID": 30464, "ELEMENT_SET_NO": 999, "REV_AT_EPOCH": 97188, "BSTAR": 0.00010882, "MEAN_MOTION_DOT": 1.59e-06, "MEAN_MOTION_DDOT": 0}, "tle": {"line1": "1 30464U 99025AGB 25355.59581247  .00000159  00000+0  10882-3 0  9999", "line2": "2 30464  98.8358  45.7466 0108519 233.3342 285.9468 14.10248811971881"}}, "geometry": {"type": "Point", "coordinates": [-136.75016840815718, -19.354362530722963]}}, {"type": "Feature", "properties": {"norad_id": 30465, "name": "FENGYUN 1C DEB", "group": "fengyun-1c-debris", "lat": 44.36698899192511, "lon": -86.6024321749062, "alt_km": 782.8548237176465, "timestamp": "2025-12-22T05:49:03.776103+00:00", "meta": {"OBJECT_NAME": "FENGYUN 1C DEB", "OBJECT_ID": "1999-025AGC", "EPOCH": "2025-12-21T18:04:44.864256", "MEAN_MOTION": 14.33955195, "ECCENTRICITY": 0.0016405, "INCLINATION": 98.829, "RA_OF_ASC_NODE": 84.1539, "ARG_OF_PERICENTER": 2.4326, "MEAN_ANOMALY": 128.8524, "EPHEMERIS_TYPE": 0, "CLASSIFICATION_TYPE": "U", "NORAD_CAT_ID": 30465, "ELEMENT_SET_NO": 999, "REV_AT_EPOCH": 97487, "BSTAR": 0.0013517, "MEAN_MOTION_DOT": 3.731e-05, "MEAN_MOTION_DDOT": 0}, "tle": {"line1": "1 30465U 99025AGC 25355.75329704  .00003731  00000+0  13517-2 0  9992", "line2": "2 30465  98.8290  84.1539 0016405   2.4326 128.8524 14.33955195974879"}}, "geometry": {"type": "Point", "coordinates": [-86.6024321749062, 44.36698899192511]}}, {"type": "Feature", "properties": {"norad_id": 30466, "name": "FENGYUN 1C DEB", "group": "fengyun-1c-debris", "lat": 48.21351462612566, "lon": 26.28813846281326, "alt_km": 760.6493160987457, "timestamp": "2025-12-22T05:49:03.776113+00:00", "meta": {"OBJECT_NAME": "FENGYUN 1C DEB", "OBJECT_ID": "1999-025AGD", "EPOCH": "2025-12-21T09:24:11.213280", "MEAN_MOTION": 14.22572853, "ECCENTRICITY": 0.01160675, "INCLINATION": 98.6542, "RA_OF_ASC_NODE": 35.2649, "ARG_OF_PERICENTER": 359.1658, "MEAN_ANOMALY": 15.0883, "EPHEMERIS_TYPE": 0, "CLASSIFICATION_TYPE": "U", "NORAD_CAT_ID": 30466, "ELEMENT_SET_NO": 999, "REV_AT_EPOCH": 97474, "BSTAR": 0.00087783506, "MEAN_MOTION_DOT": 2.057e-05, "MEAN_MOTION_DDOT": 0}, "tle": {"line1": "1 30466U 99025AGD 25355.39179645  .00002057  00000+0  87784-3 0  9998", "line2": "2 30466  98.6542  35.2649 0116067 359.1658  15.0883 14.22572853974747"}}, "geometry": {"type": "Point", "coordinates": [26.28813846281326, 48.21351462612566]}}]}